[
  {
    "CCSDS_OMM_VERS": "2.0",
    "COMMENT": "GENERATED VIA SPACE-TRACK.ORG API",
    "CREATION_DATE": "2021-12-03T17:32:05",
    "ORIGINATOR": "18 SPCS",
    "OBJECT_NAME": "TRANSIT 5B-1",
    "OBJECT_ID": "1963-038B",
    "CENTER_NAME": "EARTH",
    "REF_FRAME": "TEME",
    "TIME_SYSTEM": "UTC",
    "MEAN_ELEMENT_THEORY": "SGP4",
    "EPOCH": "2021-12-03T11:24:09.059904",
    "MEAN_MOTION": "13.44361291",
    "ECCENTRICITY": "0.00432730",
    "INCLINATION": "90.0226",
    "RA_OF_ASC_NODE": "333.7660",
    "ARG_OF_PERICENTER": "96.2307",
    "MEAN_ANOMALY": "264.3773",
    "EPHEMERIS_TYPE": "0",
    "CLASSIFICATION_TYPE": "U",
    "NORAD_CAT_ID": "670",
    "ELEMENT_SET_NO": "999",
    "REV_AT_EPOCH": "85156",
    "BSTAR": "0.00007603200000",
    "MEAN_MOTION_DOT": "0.00000054",
    "MEAN_MOTION_DDOT": "0.0000000000000",
    "SEMIMAJOR_AXIS": "7471.214",
    "PERIOD": "107.114",
    "APOAPSIS": "1125.409",
    "PERIAPSIS": "1060.749",
    "OBJECT_TYPE": "PAYLOAD",
    "RCS_SIZE": "MEDIUM",
    "COUNTRY_CODE": "US",
    "LAUNCH_DATE": "1963-09-28",
    "SITE": "AFWTR",
    "DECAY_DATE": null,
    "FILE": "3231740",
    "GP_ID": "190989608",
    "TLE_LINE0": "0 TRANSIT 5B-1",
    "TLE_LINE1": "1 00670U 63038B   21337.47510486  .00000054  00000-0  76032-4 0  9995",
    "TLE_LINE2": "2 00670  90.0226 333.7660 0043273  96.2307 264.3773 13.44361291851569"
  },
  {
    "CCSDS_OMM_VERS": "2.0",
    "COMMENT": "GENERATED VIA SPACE-TRACK.ORG API",
    "CREATION_DATE": "2021-12-03T17:32:05",
    "ORIGINATOR": "18 SPCS",
    "OBJECT_NAME": "RADIATION SAT (5E 1)",
    "OBJECT_ID": "1963-038C",
    "CENTER_NAME": "EARTH",
    "REF_FRAME": "TEME",
    "TIME_SYSTEM": "UTC",
    "MEAN_ELEMENT_THEORY": "SGP4",
    "EPOCH": "2021-12-03T12:35:56.448096",
    "MEAN_MOTION": "13.44880890",
    "ECCENTRICITY": "0.00418920",
    "INCLINATION": "90.0236",
    "RA_OF_ASC_NODE": "333.7252",
    "ARG_OF_PERICENTER": "57.9220",
    "MEAN_ANOMALY": "302.5985",
    "EPHEMERIS_TYPE": "0",
    "CLASSIFICATION_TYPE": "U",
    "NORAD_CAT_ID": "671",
    "ELEMENT_SET_NO": "999",
    "REV_AT_EPOCH": "85234",
    "BSTAR": "0.00006754400000",
    "MEAN_MOTION_DOT": "0.00000049",
    "MEAN_MOTION_DDOT": "0.0000000000000",
    "SEMIMAJOR_AXIS": "7469.290",
    "PERIOD": "107.073",
    "APOAPSIS": "1122.445",
    "PERIAPSIS": "1059.864",
    "OBJECT_TYPE": "PAYLOAD",
    "RCS_SIZE": "LARGE",
    "COUNTRY_CODE": "US",
    "LAUNCH_DATE": "1963-09-28",
    "SITE": "AFWTR",
    "DECAY_DATE": null,
    "FILE": "3231740",
    "GP_ID": "190989858",
    "TLE_LINE0": "0 RADIATION SAT (5E 1)",
    "TLE_LINE1": "1 00671U 63038C   21337.52495889  .00000049  00000-0  67544-4 0  9993",
    "TLE_LINE2": "2 00671  90.0236 333.7252 0041892  57.9220 302.5985 13.44880890852349"
  },
  {
    "CCSDS_OMM_VERS": "2.0",
    "COMMENT": "GENERATED VIA SPACE-TRACK.ORG API",
    "CREATION_DATE": "2021-12-03T17:32:05",
    "ORIGINATOR": "18 SPCS",
    "OBJECT_NAME": "THOR ABLESTAR DEB",
    "OBJECT_ID": "1963-038D",
    "CENTER_NAME": "EARTH",
    "REF_FRAME": "TEME",
    "TIME_SYSTEM": "UTC",
    "MEAN_ELEMENT_THEORY": "SGP4",
    "EPOCH": "2021-12-03T07:04:26.157216",
    "MEAN_MOTION": "13.65834817",
    "ECCENTRICITY": "0.00310040",
    "INCLINATION": "90.0361",
    "RA_OF_ASC_NODE": "333.9947",
    "ARG_OF_PERICENTER": "328.9328",
    "MEAN_ANOMALY": "94.2604",
    "EPHEMERIS_TYPE": "0",
    "CLASSIFICATION_TYPE": "U",
    "NORAD_CAT_ID": "672",
    "ELEMENT_SET_NO": "999",
    "REV_AT_EPOCH": "87554",
    "BSTAR": "0.00020987000000",
    "MEAN_MOTION_DOT": "0.00000182",
    "MEAN_MOTION_DDOT": "0.0000000000000",
    "SEMIMAJOR_AXIS": "7392.700",
    "PERIOD": "105.430",
    "APOAPSIS": "1037.485",
    "PERIAPSIS": "991.644",
    "OBJECT_TYPE": "DEBRIS",
    "RCS_SIZE": "SMALL",
    "COUNTRY_CODE": "US",
    "LAUNCH_DATE": "1963-09-28",
    "SITE": "AFWTR",
    "DECAY_DATE": null,
    "FILE": "3231740",
    "GP_ID": "190991109",
    "TLE_LINE0": "0 THOR ABLESTAR DEB",
    "TLE_LINE1": "1 00672U 63038D   21337.29474719  .00000182  00000-0  20987-3 0  9994",
    "TLE_LINE2": "2 00672  90.0361 333.9947 0031004 328.9328  94.2604 13.65834817875547"
  },
  {
    "CCSDS_OMM_VERS": "2.0",
    "COMMENT": "GENERATED VIA SPACE-TRACK.ORG API",
    "CREATION_DATE": "2021-11-17T22:26:11",
    "ORIGINATOR": "18 SPCS",
    "OBJECT_NAME": "VELA 2",
    "OBJECT_ID": "1963-039A",
    "CENTER_NAME": "EARTH",
    "REF_FRAME": "TEME",
    "TIME_SYSTEM": "UTC",
    "MEAN_ELEMENT_THEORY": "SGP4",
    "EPOCH": "2021-11-22T07:16:13.307520",
    "MEAN_MOTION": "0.22205809",
    "ECCENTRICITY": "0.22913970",
    "INCLINATION": "40.8272",
    "RA_OF_ASC_NODE": "138.2598",
    "ARG_OF_PERICENTER": "115.7375",
    "MEAN_ANOMALY": "0.3636",
    "EPHEMERIS_TYPE": "0",
    "CLASSIFICATION_TYPE": "U",
    "NORAD_CAT_ID": "674",
    "ELEMENT_SET_NO": "999",
    "REV_AT_EPOCH": "4713",
    "BSTAR": "0.00000000000000",
    "MEAN_MOTION_DOT": "0.00000320",
    "MEAN_MOTION_DDOT": "0.0000000000000",
    "SEMIMAJOR_AXIS": "115192.475",
    "PERIOD": "6484.790",
    "APOAPSIS": "135209.509",
    "PERIAPSIS": "82419.171",
    "OBJECT_TYPE": "PAYLOAD",
    "RCS_SIZE": "SMALL",
    "COUNTRY_CODE": "US",
    "LAUNCH_DATE": "1963-10-17",
    "SITE": "AFETR",
    "DECAY_DATE": null,
    "FILE": "3217722",
    "GP_ID": "189949221",
    "TLE_LINE0": "0 VELA 2",
    "TLE_LINE1": "1   674U 63039A   21326.30293180  .00000320  00000-0  00000+0 0  9992",
    "TLE_LINE2": "2   674  40.8272 138.2598 2291397 115.7375   0.3636  0.22205809 47131"
  },
  {
    "CCSDS_OMM_VERS": "2.0",
    "COMMENT": "GENERATED VIA SPACE-TRACK.ORG API",
    "CREATION_DATE": "2021-11-16T04:03:04",
    "ORIGINATOR": "18 SPCS",
    "OBJECT_NAME": "VELA 1",
    "OBJECT_ID": "1963-039C",
    "CENTER_NAME": "EARTH",
    "REF_FRAME": "TEME",
    "TIME_SYSTEM": "UTC",
    "MEAN_ELEMENT_THEORY": "SGP4",
    "EPOCH": "2021-11-16T06:31:45.779232",
    "MEAN_MOTION": "0.22093525",
    "ECCENTRICITY": "0.54470290",
    "INCLINATION": "12.1521",
    "RA_OF_ASC_NODE": "316.8084",
    "ARG_OF_PERICENTER": "267.2512",
    "MEAN_ANOMALY": "0.6067",
    "EPHEMERIS_TYPE": "0",
    "CLASSIFICATION_TYPE": "U",
    "NORAD_CAT_ID": "692",
    "ELEMENT_SET_NO": "999",
    "REV_AT_EPOCH": "948",
    "BSTAR": "0.00000000000000",
    "MEAN_MOTION_DOT": "-0.00001607",
    "MEAN_MOTION_DDOT": "0.0000000000000",
    "SEMIMAJOR_AXIS": "115582.433",
    "PERIOD": "6517.747",
    "APOAPSIS": "172162.385",
    "PERIAPSIS": "46246.212",
    "OBJECT_TYPE": "PAYLOAD",
    "RCS_SIZE": "LARGE",
    "COUNTRY_CODE": "US",
    "LAUNCH_DATE": "1963-10-17",
    "SITE": "AFETR",
    "DECAY_DATE": null,
    "FILE": "3215928",
    "GP_ID": "189817846",
    "TLE_LINE0": "0 VELA 1",
    "TLE_LINE1": "1 00692U 63039C   21320.27205763 -.00001607  00000-0  00000-0 0  9993",
    "TLE_LINE2": "2 00692  12.1521 316.8084 5447029 267.2512   0.6067  0.22093525  9485"
  },
  {
    "CCSDS_OMM_VERS": "2.0",
    "COMMENT": "GENERATED VIA SPACE-TRACK.ORG API",
    "CREATION_DATE": "2021-12-04T02:39:20",
    "ORIGINATOR": "18 SPCS",
    "OBJECT_NAME": "ATLAS CENTAUR 2 R\/B",
    "OBJECT_ID": "1963-047A",
    "CENTER_NAME": "EARTH",
    "REF_FRAME": "TEME",
    "TIME_SYSTEM": "UTC",
    "MEAN_ELEMENT_THEORY": "SGP4",
    "EPOCH": "2021-12-03T18:55:16.114080",
    "MEAN_MOTION": "14.03003481",
    "ECCENTRICITY": "0.05841450",
    "INCLINATION": "30.3539",
    "RA_OF_ASC_NODE": "188.0036",
    "ARG_OF_PERICENTER": "147.3899",
    "MEAN_ANOMALY": "216.4196",
    "EPHEMERIS_TYPE": "0",
    "CLASSIFICATION_TYPE": "U",
    "NORAD_CAT_ID": "694",
    "ELEMENT_SET_NO": "999",
    "REV_AT_EPOCH": "91218",
    "BSTAR": "0.00010486000000",
    "MEAN_MOTION_DOT": "0.00000901",
    "MEAN_MOTION_DDOT": "0.0000000000000",
    "SEMIMAJOR_AXIS": "7261.550",
    "PERIOD": "102.637",
    "APOAPSIS": "1307.595",
    "PERIAPSIS": "459.235",
    "OBJECT_TYPE": "ROCKET BODY",
    "RCS_SIZE": "LARGE",
    "COUNTRY_CODE": "US",
    "LAUNCH_DATE": "1963-11-27",
    "SITE": "AFETR",
    "DECAY_DATE": null,
    "FILE": "3231910",
    "GP_ID": "191018296",
    "TLE_LINE0": "0 ATLAS CENTAUR 2 R\/B",
    "TLE_LINE1": "1 00694U 63047A   21337.78838095  .00000901  00000-0  10486-3 0  9995",
    "TLE_LINE2": "2 00694  30.3539 188.0036 0584145 147.3899 216.4196 14.03003481912182"
  },
  {
    "CCSDS_OMM_VERS": "2.0",
    "COMMENT": "GENERATED VIA SPACE-TRACK.ORG API",
    "CREATION_DATE": "2021-12-03T17:32:05",
    "ORIGINATOR": "18 SPCS",
    "OBJECT_NAME": "ATLAS CENTAUR 2 DEB",
    "OBJECT_ID": "1963-047D",
    "CENTER_NAME": "EARTH",
    "REF_FRAME": "TEME",
    "TIME_SYSTEM": "UTC",
    "MEAN_ELEMENT_THEORY": "SGP4",
    "EPOCH": "2021-12-03T12:28:31.739520",
    "MEAN_MOTION": "13.69449332",
    "ECCENTRICITY": "0.05482840",
    "INCLINATION": "29.9248",
    "RA_OF_ASC_NODE": "13.9544",
    "ARG_OF_PERICENTER": "18.1257",
    "MEAN_ANOMALY": "343.8079",
    "EPHEMERIS_TYPE": "0",
    "CLASSIFICATION_TYPE": "U",
    "NORAD_CAT_ID": "698",
    "ELEMENT_SET_NO": "999",
    "REV_AT_EPOCH": "85142",
    "BSTAR": "0.00008901600000",
    "MEAN_MOTION_DOT": "0.00000296",
    "MEAN_MOTION_DDOT": "0.0000000000000",
    "SEMIMAJOR_AXIS": "7379.686",
    "PERIOD": "105.152",
    "APOAPSIS": "1406.167",
    "PERIAPSIS": "596.934",
    "OBJECT_TYPE": "DEBRIS",
    "RCS_SIZE": "MEDIUM",
    "COUNTRY_CODE": "US",
    "LAUNCH_DATE": "1963-11-27",
    "SITE": "AFETR",
    "DECAY_DATE": null,
    "FILE": "3231740",
    "GP_ID": "190990610",
    "TLE_LINE0": "0 ATLAS CENTAUR 2 DEB",
    "TLE_LINE1": "1 00698U 63047D   21337.51981180  .00000296  00000-0  89016-4 0  9997",
    "TLE_LINE2": "2 00698  29.9248  13.9544 0548284  18.1257 343.8079 13.69449332851428"
  }
]
